#dP2024  2 13 18  0  0.00000000      96 __u+U IGS20 EXT  IAC
## 2301 237600.00000000   900.00000000 60353 0.7500000000000
+  118   C06C07C08C09C10C11C12C13C14C16C19C20C21C22C23C24C25
+        C26C27C28C29C30C32C33C34C35C36C37C38C39C40C41C42C43
+        C44C45C46E02E03E04E05E07E08E09E10E11E12E13E14E15E18
+        E19E21E24E25E26E27E30E31E33E34E36G01G02G03G04G05G06
+        G07G08G09G10G11G12G13G14G15G16G17G18G19G20G21G22G23
+        G24G25G26G27G28G29G30G31G32J02J03R01R02R03R04R05R07
+        R08R09R11R12R13R14R15R16R17R18R19R20R21R22R24R26  0
++         0  0  0  0  0  0  0  0  0  0  0  0  0  0  0  0  0
++         0  0  0  0  0  0  0  0  0  0  0  0  0  0  0  0  0
++         0  0  0  0  0  0  0  0  0  0  0  0  0  0  0  0  0
++         0  0  0  0  0  0  0  0  0  0  0  0  0  0  0  0  0
++         0  0  0  0  0  0  0  0  0  0  0  0  0  0  0  0  0
++         0  0  0  0  0  0  0  0  0  0  0  0  0  0  0  0  0
++         0  0  0  0  0  0  0  0  0  0  0  0  0  0  0  0  0
%c M  cc GPS ccc cccc cccc cccc cccc ccccc ccccc ccccc ccccc
%c cc cc ccc ccc cccc cccc cccc cccc ccccc ccccc ccccc ccccc
%f  0.0000000  0.000000000  0.00000000000  0.000000000000000
%f  0.0000000  0.000000000  0.00000000000  0.000000000000000
%i    0    0    0    0      0      0      0      0         0
%i    0    0    0    0      0      0      0      0         0
/* IAC                                ULTRA-RAPID PREDICTION
/* S/V CLOCKS ARE ALIGNED TO GNSS TIME                      
/* G:C1WC2W R:C1PC2P E:C1XC5X C:C2IC6I J:C1CC2S             
/* PCV:IGS20_2290 OL/AL:FES2004  NONE     YN ORB:CoN CLK:CoN
*  2024 02 13 19 30  0.00000000
PC06  -9129.841264  40591.673288   7804.585243    108.115944
PC07  -6016.339856  27388.860886 -31370.338934   -796.319993
PC08 -19661.704548  26464.435735  26147.236016     40.621019
PC09  -5004.662601  42189.593491   -775.021963   -485.787475
PC10   1850.369977  29437.402817 -29647.809689     86.356304
PC11 -15806.732494 -12399.673471 -19299.883873    408.973145
PC12  -8729.498838 -26205.330530  -3918.473475    770.703900
PC13 -10240.487656  26954.586702  30814.221285    417.055232
PC14 -26458.892307  -8750.423032  -1949.982663    183.415254
PC16 -10461.715206  39776.701173  10316.350136   -337.909669
PC19  26818.088740   2430.340119  -7249.131516   -927.153501
PC20  22814.525877  13008.737906   9405.317109   -159.743523
PC21  -4569.675472 -16676.861764 -21889.677544   -962.214553
PC22  15609.025205 -10189.226313 -20757.331378   -110.960525
PC23 -20206.508870  19235.066631    543.566449   -781.401540
PC24 -11054.841318 -12038.866139  22596.754215    881.556522
PC25 -22017.788679   6090.709102  15998.467114    325.396050
PC26   5463.699357 -22169.981752  16044.599182   -248.748576
PC27   3384.117514  27316.592735  -4658.284213    270.726566
PC28  -8171.308401  19629.412367 -18069.570327    205.925624
PC29  16727.675866   1516.297213  22282.213036    241.359002
PC30  14459.559572  20918.632065  11515.564514    -24.859080
PC32   4541.562381  16649.902370  21945.280890   -567.161567
PC33 -26877.658836  -2292.555439   7191.034913   -948.552499
PC34 -15049.887357 -19696.462497 -12804.172323    368.632211
PC35   7571.618701 -19824.866436  18088.861329    434.380018
PC36  22033.258818  -5130.458185 -16334.624996    -16.154554
PC37  -6327.209708  22129.978204 -15759.601946   -936.108310
PC38 -25315.791199  27937.082243  18786.881358    136.610963
PC39 -12085.209110  36863.585347  16844.140315     -7.125019
PC40 -10089.251815  21351.204825 -34913.803902    -56.364445
PC41 -16367.560481   9847.984498  20405.615586   -890.477955
PC42 -21853.486015 -13624.272154 -10738.472221   -454.759616
PC43 -16980.935399  -2524.285837 -22004.795301     60.302806
PC44  -4301.877463 -27134.963157   4772.160544    383.544015
PC45  20170.975220 -19301.399612   -339.347926    -69.910535
PC46  11790.132330  11171.532476 -22706.344660   -123.592563
PE02 -20596.574172  -9497.095613  18997.622096    103.141676
PE03 -21310.367809 -20131.316046   4127.207390    -93.620962
PE04  21571.551197   3585.553032 -19941.711258   -326.553708
PE05  -8621.651931 -24690.019204 -13858.265112   4719.739505
PE07  -9554.971460  14529.564074  23959.227777   -103.607959
PE08 -21727.559802  -4334.149891  19634.781021   -223.389472
PE09   9527.569698 -14353.328505 -24067.400099   -334.940706
PE10  17409.212295 -16574.851224  17271.599205   -601.704835
PE11  14190.534412 -24610.045406   8275.286539   3248.368692
PE12  17833.660496  -6842.963998  22607.589198   -905.016595
PE13 -14433.624169  24257.108810  -8927.303451    -20.177299
PE14 -23283.892959 -21381.745509  -5740.853187     38.506941
PE15 -17701.951489   6315.695025 -22860.526148    -85.633110
PE18  15774.655311  17793.165849   1898.219527    323.123015
PE19  20288.352258  21464.701800  -1989.284344   -621.134841
PE21    802.299417  16916.726058 -24284.940556   -578.861459
PE24  20747.153299 -14613.247729  15235.973961   -596.499449
PE25   -323.047779 -16977.240298  24242.148275      0.843848
PE26  -2277.477655  27577.346449  10528.907486    367.861409
PE27 -20333.593686  14813.081612 -15593.533093   -273.931086
PE30 -29252.575845   3760.410592   2390.066833      6.077344
PE31  29251.225019  -3998.417199  -2197.852220    -15.932668
PE33  10225.734663  15600.588536  22991.509894      7.539861
PE34 -10576.590833 -15050.219036 -23189.637010    -94.461557
PE36   2794.507792 -27718.037975  -9974.430577   -185.501240
PG01  12236.245990 -22433.476131   6246.756645    169.421220
PG02  14443.961835 -17044.602711  14661.166947   -485.946343
PG03  20782.339868 -12029.374524 -11363.748316    191.103788
PG04  10772.897149 -10666.260927 -21787.681025    290.894327
PG05 -25919.823347   5948.104177  -1085.476424   -161.695028
PG06  -8411.876927 -15484.710219 -19765.089502    408.333646
PG07   4194.828040 -25464.353753   5579.316240    -61.186321
PG08  17120.986817  -2698.101676  20141.083347   -166.879761
PG09  -1678.297346 -19870.730162 -17597.351157     91.093931
PG10  11517.870266  11929.894499  21028.231349      0.299665
PG11 -14726.660583  -3613.146346 -21778.860765   -574.705187
PG12 -21740.470739  10746.924997 -11038.883962   -477.668333
PG13 -19012.981903  -7927.402107  16687.024566    625.234636
PG14  -7205.471996 -14268.106966  21256.608148    324.893156
PG15 -16870.855634   4742.134367  19524.019668    127.370045
PG16  26037.796662   1465.962940  -6518.692399   -363.357889
PG17 -11384.018382 -22807.858951   7595.526981    717.094671
PG18  -4280.179423  25336.427798   6341.827461   -554.861665
PG19 -16913.276020 -20610.384107  -2458.441792    440.221211
PG20 -22726.049368  -1253.174549 -13493.155230    387.621974
PG21  15656.274107 -11417.090778  18185.734644    135.045878
PG22 -14573.896722 -11759.699540  19150.246717     31.754394
PG23  -2471.682471  15463.226275  21445.774942    155.508415
PG24 -14843.971833  15535.707407  14932.069160   -431.186069
PG25 -11684.921016  15846.206726 -18038.906717    488.482933
PG26  20731.030938   6198.374405 -15784.449616    190.552424
PG27  21058.285429   9869.283974  12942.199690     -3.747632
PG28   7790.300909  17988.505281 -17943.826838   -129.997930
PG29  -1335.946526  18995.699178 -18521.637407   -607.044725
PG30  -3795.896686 -22010.878211  14294.755117   -432.999477
PG31  13190.332038   8553.998264 -21578.222665   -227.756721
PG32  15295.389248  21426.178339   4488.036989   -611.445442
PJ02 -34589.480522  15838.599568 -13536.002425     -1.957933
PJ03 -21484.167138  30934.389966 -14237.715456     -0.225026
PR01  22388.267250  11813.356586   3103.762095     77.095590
PR02  21136.739349   3350.200664 -13884.837832    -22.461960
PR03   8139.170063  -7937.472953 -22788.489457     94.462651
PR04  -8987.972217 -14358.424117 -19031.441042    223.299754
PR05 -21190.671930 -13264.785951  -4985.301273    126.863763
PR07  -7193.037032   8498.563175  22991.189643     75.749810
PR08   9262.927534  14455.787098  18943.501597    -74.398931
PR09 -21594.666803   9622.636330   9694.459399    169.816545
PR11  -5183.471416  15093.239867 -19899.450452     34.440781
PR12  12866.166536   3817.428220 -21678.441966     36.715030
PR13  21173.817383  -7814.595092 -11912.425659    -44.318959
PR14  17743.709089 -16723.433404   7469.165331     26.068823
PR15   3801.767413 -14586.191620  20588.158334     82.220718
PR16 -12589.667089  -3846.178682  21856.703673     23.263999
PR17   5411.402435 -20218.289261  14615.863514     60.982695
PR18  -1815.080719 -25388.190262  -1114.962421    127.230450
PR19  -7179.312535 -19195.978292 -15181.320793   -265.692658
PR20 -10302.612607   2064.144910 -23233.793198   -108.220207
PR21  -5408.887037  20328.495610 -14410.553390    -76.720954
PR22   1666.176639  25365.346828   2264.369857    107.951393
PR24  10645.344338  -3112.842515  22990.717328    -43.788775
PR26   8430.411032  14206.915768  19451.468190   -198.538524
EOF
